{
    "links": {
        "self": "http://www.neowsapp.com/rest/v1/neo/3564719?api_key=iIulBulltgU6a56xZRHN4H3l9WmuAYTsLGpBGhQ2"
    },
    "id": "3564719",
    "neo_reference_id": "3564719",
    "name": "(2011 HR60)",
    "designation": "2011 HR60",
    "nasa_jpl_url": "http://ssd.jpl.nasa.gov/sbdb.cgi?sstr=3564719",
    "absolute_magnitude_h": 24.6,
    "estimated_diameter": {
        "kilometers": {
            "estimated_diameter_min": 0.0319561887,
            "estimated_diameter_max": 0.0714562102
        },
        "meters": {
            "estimated_diameter_min": 31.9561886721,
            "estimated_diameter_max": 71.4562101727
        },
        "miles": {
            "estimated_diameter_min": 0.0198566489,
            "estimated_diameter_max": 0.0444008168
        },
        "feet": {
            "estimated_diameter_min": 104.8431420431,
            "estimated_diameter_max": 234.436392583
        }
    },
    "is_potentially_hazardous_asteroid": false,
    "close_approach_data": [
        {
            "close_approach_date": "2011-04-23",
            "close_approach_date_full": "2011-Apr-23 07:36",
            "epoch_date_close_approach": 1303544160000,
            "relative_velocity": {
                "kilometers_per_second": "13.2021972773",
                "kilometers_per_hour": "47527.9101983207",
                "miles_per_hour": "29531.9950896176"
            },
            "miss_distance": {
                "astronomical": "0.0394068662",
                "lunar": "15.3292709518",
                "kilometers": "5895183.246894994",
                "miles": "3663097.0095551572"
            },
            "orbiting_body": "Earth"
        }
    ],
    "orbital_data": {
        "orbit_id": "8",
        "orbit_determination_date": "2017-04-06 08:53:35",
        "first_observation_date": "2011-04-30",
        "last_observation_date": "2011-05-12",
        "data_arc_in_days": 12,
        "observations_used": 25,
        "orbit_uncertainty": "8",
        "minimum_orbit_intersection": ".0143454",
        "jupiter_tisserand_invariant": "3.404",
        "epoch_osculation": "2455685.5",
        "eccentricity": ".5981487064074126",
        "semi_major_axis": "2.201482588398647",
        "inclination": "3.866174439613864",
        "ascending_node_longitude": "220.206999240481",
        "orbital_period": "1193.084790428092",
        "perihelion_distance": ".884668625969554",
        "perihelion_argument": "300.5169001615333",
        "aphelion_distance": "3.51829655082774",
        "perihelion_time": "2455637.970112812588",
        "mean_anomaly": "14.34161220119888",
        "mean_motion": ".3017388226622419",
        "equinox": "J2000",
        "orbit_class": {
            "orbit_class_type": "APO",
            "orbit_class_description": "Near-Earth asteroid orbits which cross the Earth’s orbit similar to that of 1862 Apollo",
            "orbit_class_range": "a (semi-major axis) > 1.0 AU; q (perihelion) < 1.017 AU"
        }
    },
    "is_sentry_object": false
}